ORBCOMM FM05            
1 25117U 97084F   24290.88329881  .00004661  00000+0  13906-2 0  9995
2 25117  45.0139  94.7787 0002019 121.5399 238.5649 14.44040681405417
ORBCOMM FM06            
1 25118U 97084G   24290.93310372  .00005299  00000+0  15705-2 0  9994
2 25118  45.0128  94.5858 0001804 150.0124  15.1253 14.44180573406334
ORBCOMM FM17            
1 25413U 98046A   24290.60068148  .00003207  00000+0  11889-2 0  9992
2 25413  44.9947 326.3531 0000794 344.6424  15.4399 14.33961225368198
ORBCOMM FM18            
1 25414U 98046B   24290.90142171  .00004193  00000+0  14478-2 0  9997
2 25414  44.9923 248.4933 0002473 128.4043 231.7027 14.37011068369405
ORBCOMM FM19            
1 25415U 98046C   24290.36097400  .00004370  00000+0  15122-2 0  9996
2 25415  44.9932 252.6808 0001390 100.1837  60.8003 14.36837064369113
